SHIJIAN-17 (SJ-17)      
1 41838U 16065A   26177.58637191  .00000123  00000+0  00000+0 0  9999
2 41838   5.7763  72.4953 0002233  28.5327 246.5081  0.99858719 35292
GOES 16                 
1 41866U 16071A   26178.14397384 -.00000080  00000+0  00000+0 0  9990
2 41866   0.3658  85.5266 0000590   9.3112 127.5560  1.00272083 35200
TIANLIAN 1-04           
1 41869U 16072A   26178.12829868  .00000042  00000+0  00000+0 0  9996
2 41869   0.8938  82.8647 0042888  90.3246 325.0252  1.00273276 35406
WGS F8 (USA 272)        
1 41879U 16075A   26178.09697735  .00000000  00000+0  00000+0 0  9996
2 41879   0.0466  54.3241 0000192 169.9631 235.6984  1.00267928 34923
FENGYUN 4A              
1 41882U 16077A   26177.54757616 -.00000348  00000+0  00000+0 0  9992
2 41882   2.3469  80.1884 0008229 152.1316   3.0696  1.00264621 35024
ECHOSTAR 19             
1 41893U 16079A   26178.14536052 -.00000127  00000+0  00000+0 0  9997
2 41893   0.0176  23.9119 0001628  64.7789 141.7893  1.00270675 34800
JCSAT-110A (JCSAT-15)   
1 41903U 16082A   26178.04380014  .00000000  00000+0  00000+0 0  9996
2 41903   0.0286  20.2368 0000953  83.6195 297.1506  1.00270999 34852
STAR ONE D1             
1 41904U 16082B   26178.19003037 -.00000199  00000+0  00000+0 0  9990
2 41904   0.0231  55.9363 0002287  55.4829 148.2982  1.00271703 34876
TJS-2                   
1 41911U 17001A   26178.17780256  .00000004  00000+0  00000+0 0  9997
2 41911   0.8588  85.2141 0000781  45.9702 274.6516  1.00272359 34817
SBIRS GEO-4 (USA 273)   
1 41937U 17004A   26178.16878918  .00000133  00000+0  00000+0 0  9993
2 41937   2.2617  43.5508 0002374  44.7318 268.6702  1.00273895 34690
HISPASAT 36W-1          
1 41942U 17006A   26177.51587764 -.00000233  00000+0  00000+0 0  9997
2 41942   0.0087 285.7882 0000977 164.6045 333.9657  1.00269517 34336
TELKOM 3S               
1 41944U 17007A   26177.90283285 -.00000351  00000+0  00000+0 0  9995
2 41944   0.0123  63.0924 0002503  32.3535 262.5954  1.00273122 34238
INTELSAT 32E (IS-32E)   
1 41945U 17007B   26178.15613579 -.00000257  00000+0  00000+0 0  9992
2 41945   0.0065  35.0163 0000590 325.5426 287.7360  1.00270867 34321
ECHOSTAR 23             
1 42070U 17014A   26178.14293384  .00000000  00000+0  00000+0 0  9992
2 42070   0.0283  21.7800 0002029  75.6830 119.3553  1.00270935 34021
WGS F9 (USA 275)        
1 42075U 17016A   26178.09103058  .00000000  00000+0  00000+0 0  9991
2 42075   0.0260 349.5857 0000273 115.2533 191.1400  1.00268413 33996
SES-10                  
1 42432U 17017A   26178.18447568 -.00000261  00000+0  00000+0 0  9996
2 42432   0.0192  38.2079 0003074  66.6557 169.9499  1.00269626 33855
CHINASAT 16 (SJ-13)     
1 42662U 17018A   26176.97461878 -.00000342  00000+0  00000+0 0  9997
2 42662   0.0997  89.7024 0004043 125.6560 160.1297  1.00275032 33836
KOREASAT 7              
1 42691U 17023A   26178.04501347 -.00000350  00000+0  00000+0 0  9990
2 42691   0.0204  21.0614 0000574  56.3509 329.8610  1.00272441 33464
SGDC                    
1 42692U 17023B   26177.44530163 -.00000238  00000+0  00000+0 0  9997
2 42692   0.0223  58.2366 0002860  42.5775 259.2142  1.00271749 33505
GSAT-9                  
1 42695U 17024A   26177.82744707 -.00000275  00000+0  00000+0 0  9995
2 42695   0.0387  88.1199 0002099  16.8878 205.0967  1.00275521 33390
INMARSAT 5-F4           
1 42698U 17025A   26177.74812470  .00000000  00000+0  00000+0 0  9998
2 42698   0.0278  22.9153 0000721  19.9960 197.7868  1.00277150 33379
SES-15                  
1 42709U 17026A   26177.72018892  .00000072  00000+0  00000+0 0  9995
2 42709   0.0197 336.5648 0000730 101.7226 326.6485  1.00267078  7524
QZS-2 (MICHIBIKI-2)     
1 42738U 17028A   26177.49072513 -.00000138  00000+0  00000+0 0  9997
2 42738  39.4133 243.0175 0759188 269.3662  80.9134  1.00281441  7714
VIASAT-2                
1 42740U 17029A   26178.18447568 -.00000254  00000+0  00000+0 0  9993
2 42740   0.0173 301.9701 0000445 151.9436 177.9129  1.00270297 33306
EUTELSAT 172B           
1 42741U 17029B   26178.12743200  .00000006  00000+0  00000+0 0  9994
2 42741   0.0399 137.0955 0000280 315.4133  40.6096  1.00271615 33847
GSAT-19                 
1 42747U 17031A   26178.17416255  .00000137  00000+0  00000+0 0  9990
2 42747   0.0161 323.1691 0007161 113.5349 309.1315  1.00272426 33248
ECHOSTAR 21             
1 42749U 17032A   26178.16670917  .00000078  00000+0  00000+0 0  9993
2 42749   1.7702 356.3655 0002608  89.1478 260.0456  1.00273436 33196
BULGARIASAT-1           
1 42801U 17038A   26178.07058714  .00000022  00000+0  00000+0 0  9992
2 42801   0.0331  74.5117 0003730  33.3425 194.6446  1.00270874 32943
HELLAS-SAT 3            
1 42814U 17040A   26178.17234252  .00000164  00000+0  00000+0 0  9990
2 42814   0.0415  36.5277 0004329  23.5865 316.2239  1.00269636 32901
GSAT-17                 
1 42815U 17040B   26178.11191735 -.00000246  00000+0  00000+0 0  9995
2 42815   0.0309  84.3360 0001388 209.3628 115.3211  1.00272601 32882
INTELSAT 35E (IS-35E)   
1 42818U 17041A   26178.23472595  .00000000  00000+0  00000+0 0  9995
2 42818   0.0278  25.1749 0002393  72.4170 227.7690  1.00269079 32910
COSMOS 2520             
1 42907U 17046A   26178.17355587  .00000149  00000+0  00000+0 0  9997
2 42907   0.0413  98.3723 0000354  27.4401 256.9528  1.00270498 32490
