OBJECT_NAME,OBJECT_ID,EPOCH,MEAN_MOTION,ECCENTRICITY,INCLINATION,RA_OF_ASC_NODE,ARG_OF_PERICENTER,MEAN_ANOMALY,EPHEMERIS_TYPE,CLASSIFICATION_TYPE,NORAD_CAT_ID,ELEMENT_SET_NO,REV_AT_EPOCH,BSTAR,MEAN_MOTION_DOT,MEAN_MOTION_DDOT
SHIJIAN-17 (SJ-17),2016-065A,2026-06-26T14:04:22.533024,0.99858719,.0002233,5.7763,72.4953,28.5327,246.5081,0,U,41838,999,3529,0,.123E-5,0
GOES 16,2016-071A,2026-06-27T03:27:19.339776,1.00272083,.000059,0.3658,85.5266,9.3112,127.5560,0,U,41866,999,3520,0,-.8E-6,0
TIANLIAN 1-04,2016-072A,2026-06-27T03:04:45.005952,1.00273276,.0042888,0.8938,82.8647,90.3246,325.0252,0,U,41869,999,3540,0,.42E-6,0
WGS F8 (USA 272),2016-075A,2026-06-27T02:19:38.843040,1.00267928,.0000192,0.0466,54.3241,169.9631,235.6984,0,U,41879,999,3492,0,0,0
FENGYUN 4A,2016-077A,2026-06-26T13:08:30.580224,1.00264621,.0008229,2.3469,80.1884,152.1316,3.0696,0,U,41882,999,3502,0,-.348E-5,0
ECHOSTAR 19,2016-079A,2026-06-27T03:29:19.148928,1.00270675,.0001628,0.0176,23.9119,64.7789,141.7893,0,U,41893,999,3480,0,-.127E-5,0
JCSAT-110A (JCSAT-15),2016-082A,2026-06-27T01:03:04.332096,1.00270999,.0000953,0.0286,20.2368,83.6195,297.1506,0,U,41903,999,3485,0,0,0
STAR ONE D1,2016-082B,2026-06-27T04:33:38.623968,1.00271703,.0002287,0.0231,55.9363,55.4829,148.2982,0,U,41904,999,3487,0,-.199E-5,0
TJS-2,2017-001A,2026-06-27T04:16:02.141184,1.00272359,.0000781,0.8588,85.2141,45.9702,274.6516,0,U,41911,999,3481,0,.4E-7,0
SBIRS GEO-4 (USA 273),2017-004A,2026-06-27T04:03:03.385152,1.00273895,.0002374,2.2617,43.5508,44.7318,268.6702,0,U,41937,999,3469,0,.133E-5,0
HISPASAT 36W-1,2017-006A,2026-06-26T12:22:51.828096,1.00269517,.0000977,0.0087,285.7882,164.6045,333.9657,0,U,41942,999,3433,0,-.233E-5,0
TELKOM 3S,2017-007A,2026-06-26T21:40:04.758240,1.00273122,.0002503,0.0123,63.0924,32.3535,262.5954,0,U,41944,999,3423,0,-.351E-5,0
INTELSAT 32E (IS-32E),2017-007B,2026-06-27T03:44:50.132256,1.00270867,.000059,0.0065,35.0163,325.5426,287.7360,0,U,41945,999,3432,0,-.257E-5,0
ECHOSTAR 23,2017-014A,2026-06-27T03:25:49.483776,1.00270935,.0002029,0.0283,21.7800,75.6830,119.3553,0,U,42070,999,3402,0,0,0
WGS F9 (USA 275),2017-016A,2026-06-27T02:11:05.042112,1.00268413,.0000273,0.0260,349.5857,115.2533,191.1400,0,U,42075,999,3399,0,0,0
SES-10,2017-017A,2026-06-27T04:25:38.698752,1.00269626,.0003074,0.0192,38.2079,66.6557,169.9499,0,U,42432,999,3385,0,-.261E-5,0
CHINASAT 16 (SJ-13),2017-018A,2026-06-25T23:23:27.062592,1.00275032,.00040437,0.0997,89.7024,125.6560,160.1297,0,U,42662,999,3383,0,-.342E-5,0
KOREASAT 7,2017-023A,2026-06-27T01:04:49.163808,1.00272441,.0000574,0.0204,21.0614,56.3509,329.8610,0,U,42691,999,3346,0,-.35E-5,0
SGDC,2017-023B,2026-06-26T10:41:14.060832,1.00271749,.000286,0.0223,58.2366,42.5775,259.2142,0,U,42692,999,3350,0,-.238E-5,0
GSAT-9,2017-024A,2026-06-26T19:51:31.426848,1.00275521,.0002099,0.0387,88.1199,16.8878,205.0967,0,U,42695,999,3339,0,-.275E-5,0
INMARSAT 5-F4,2017-025A,2026-06-26T17:57:17.974080,1.00277150,.00007217,0.0278,22.9153,19.9960,197.7868,0,U,42698,999,3337,0,0,0
SES-15,2017-026A,2026-06-26T17:17:04.322688,1.00267078,.00007303,0.0197,336.5648,101.7226,326.6485,0,U,42709,999,752,0,.72E-6,0
QZS-2 (MICHIBIKI-2),2017-028A,2026-06-26T11:46:38.651232,1.00281441,.0759188,39.4133,243.0175,269.3662,80.9134,0,U,42738,999,771,0,-.138E-5,0
VIASAT-2,2017-029A,2026-06-27T04:25:38.698752,1.00270297,.0000445,0.0173,301.9701,151.9436,177.9129,0,U,42740,999,3330,0,-.254E-5,0
EUTELSAT 172B,2017-029B,2026-06-27T03:03:30.124800,1.00271615,.000028,0.0399,137.0955,315.4133,40.6096,0,U,42741,999,3384,0,.6E-7,0
GSAT-19,2017-031A,2026-06-27T04:10:47.644320,1.00272426,.0007161,0.0161,323.1691,113.5349,309.1315,0,U,42747,999,3324,0,.137E-5,0
ECHOSTAR 21,2017-032A,2026-06-27T04:00:03.672288,1.00273436,.0002608,1.7702,356.3655,89.1478,260.0456,0,U,42749,999,3319,0,.78E-6,0
BULGARIASAT-1,2017-038A,2026-06-27T01:41:38.728896,1.00270874,.000373,0.0331,74.5117,33.3425,194.6446,0,U,42801,999,3294,0,.22E-6,0
HELLAS-SAT 3,2017-040A,2026-06-27T04:08:10.393728,1.00269636,.0004329,0.0415,36.5277,23.5865,316.2239,0,U,42814,999,3290,0,.164E-5,0
GSAT-17,2017-040B,2026-06-27T02:41:09.659040,1.00272601,.0001388,0.0309,84.3360,209.3628,115.3211,0,U,42815,999,3288,0,-.246E-5,0
INTELSAT 35E (IS-35E),2017-041A,2026-06-27T05:38:00.322080,1.00269079,.0002393,0.0278,25.1749,72.4170,227.7690,0,U,42818,999,3291,0,0,0
COSMOS 2520,2017-046A,2026-06-27T04:09:55.227168,1.00270498,.0000354,0.0413,98.3723,27.4401,256.9528,0,U,42907,999,3249,0,.149E-5,0
